[{"OBJECT_NAME":"EXO-0","OBJECT_ID":"2023-174DK","EPOCH":"2026-03-09T17:03:04.419648","MEAN_MOTION":15.32821991,"ECCENTRICITY":0.00098779,"INCLINATION":97.3864,"RA_OF_ASC_NODE":148.9039,"ARG_OF_PERICENTER":157.1125,"MEAN_ANOMALY":203.0559,"EPHEMERIS_TYPE":0,"CLASSIFICATION_TYPE":"U","NORAD_CAT_ID":59175,"ELEMENT_SET_NO":999,"REV_AT_EPOCH":12979,"BSTAR":0.00036716083,"MEAN_MOTION_DOT":0.00011582,"MEAN_MOTION_DDOT":0},{"OBJECT_NAME":"STARLINK-34073","OBJECT_ID":"2025-137N","EPOCH":"2026-03-09T22:11:46.305600","MEAN_MOTION":15.30209045,"ECCENTRICITY":0.00019946,"INCLINATION":53.16,"RA_OF_ASC_NODE":333.9492,"ARG_OF_PERICENTER":51.2678,"MEAN_ANOMALY":308.8501,"EPHEMERIS_TYPE":0,"CLASSIFICATION_TYPE":"U","NORAD_CAT_ID":64606,"ELEMENT_SET_NO":999,"REV_AT_EPOCH":4065,"BSTAR":0.00093034824,"MEAN_MOTION_DOT":0.00027304,"MEAN_MOTION_DDOT":0}]
